[{"OBJECT_NAME":"TIANPING 2A","OBJECT_ID":"2022-032A","EPOCH":"2026-03-09T22:58:37.953408","MEAN_MOTION":14.9690979,"ECCENTRICITY":0.00109299,"INCLINATION":97.5994,"RA_OF_ASC_NODE":109.5163,"ARG_OF_PERICENTER":146.1091,"MEAN_ANOMALY":214.0831,"EPHEMERIS_TYPE":0,"CLASSIFICATION_TYPE":"U","NORAD_CAT_ID":52153,"ELEMENT_SET_NO":999,"REV_AT_EPOCH":21499,"BSTAR":3.4221979e-5,"MEAN_MOTION_DOT":3.37e-6,"MEAN_MOTION_DDOT":0},{"OBJECT_NAME":"STARLINK-5854","OBJECT_ID":"2023-037K","EPOCH":"2026-03-09T22:23:42.917568","MEAN_MOTION":14.98329785,"ECCENTRICITY":0.00026496,"INCLINATION":69.9996,"RA_OF_ASC_NODE":303.8424,"ARG_OF_PERICENTER":268.2364,"MEAN_ANOMALY":91.8491,"EPHEMERIS_TYPE":0,"CLASSIFICATION_TYPE":"U","NORAD_CAT_ID":55923,"ELEMENT_SET_NO":999,"REV_AT_EPOCH":16352,"BSTAR":-4.2582624e-5,"MEAN_MOTION_DOT":-6.01e-6,"MEAN_MOTION_DDOT":0}]
